NOAA 15                 
1 25338U 98030A   22221.60020711  .00000131  00000+0  73104-4 0  9990
2 25338  98.6417 250.4337 0011202 138.3615 221.8420 14.26159156260844
DMSP 5D-3 F15 (USA 147) 
1 25991U 99067A   22221.60780069  .00000092  00000+0  69175-4 0  9994
2 25991  99.0552 214.0981 0010896  42.5945 103.1088 14.16559480171313
METEOSAT-8 (MSG-1)      
1 27509U 02040B   22220.67615656  .00000126  00000+0  00000+0 0  9996
2 27509   8.1308  50.3638 0000410  87.1852 104.6735  1.00280375 73132
DMSP 5D-3 F16 (USA 172) 
1 28054U 03048A   22221.62766016 -.00000002  00000+0  23172-4 0  9998
2 28054  98.9910 212.7181 0007591 158.8398   4.6667 14.13677199970534
NOAA 18                 
1 28654U 05018A   22221.60687700  .00000119  00000+0  88053-4 0  9990
2 28654  98.9465 291.9948 0014438 177.1964 182.9291 14.12762190887575
METEOSAT-9 (MSG-2)      
1 28912U 05049B   22221.19285413  .00000118  00000+0  00000+0 0  9990
2 28912   6.1339  65.9585 0000713 351.5147  15.2741  1.00274144 60965
EWS-G1 (GOES 13)        
1 29155U 06018A   22221.63174531  .00000029  00000+0  00000+0 0  9995
2 29155   0.7246  96.6179 0005246  92.6646  57.5412  1.00273707 59398
DMSP 5D-3 F17 (USA 191) 
1 29522U 06050A   22221.63959733  .00000035  00000+0  40929-4 0  9990
2 29522  98.7665 235.6964 0010995 108.1246 252.1126 14.14105187813423
FENGYUN 3A              
1 32958U 08026A   22221.50302626  .00000053  00000+0  45728-4 0  9993
2 32958  98.5062 181.9772 0007794 224.9020 135.1527 14.18731970735853
FENGYUN 2E              
1 33463U 08066A   22221.54617197 -.00000215  00000+0  00000+0 0  9995
2 33463   6.0195  65.0054 0002945  19.1910 157.1858  1.00270133 49974
NOAA 19                 
1 33591U 09005A   22221.61419599  .00000134  00000+0  97615-4 0  9997
2 33591  99.1449 256.8592 0014534  42.3702 317.8588 14.12596681695958
GOES 14                 
1 35491U 09033A   22221.55619898 -.00000101  00000+0  00000+0 0  9998
2 35491   0.4387  94.5763 0014265 115.9479 203.1653  1.00271749 48041
METEOR-M 1              
1 35865U 09049A   22221.43722772  .00000045  00000+0  39072-4 0  9995
2 35865  98.5320 190.2085 0003488  77.4559 282.7010 14.22348641669221
DMSP 5D-3 F18 (USA 210) 
1 35951U 09057A   22221.63472055  .00000170  00000+0  11319-3 0  9990
2 35951  98.7256 199.7192 0010031 299.3889  60.6282 14.13536870660625
GOES 15                 
1 36411U 10008A   22220.92931737  .00000049  00000+0  00000+0 0  9994
2 36411   0.4500 276.2890 0004588 234.8013  12.8021  1.00267112 45548
COMS 1                  
1 36744U 10032A   22221.41085083 -.00000353  00000+0  00000+0 0  9998
2 36744   1.2072  92.2506 0001162  41.4524 100.2127  1.00270282 44533
FENGYUN 3B              
1 37214U 10059A   22221.48307610 -.00000027  00000+0  10047-4 0  9995
2 37214  99.0927 228.3982 0021763 203.2274 156.7924 14.14261377608451
SUOMI NPP               
1 37849U 11061A   22221.62574029  .00000017  00000+0  28867-4 0  9996
2 37849  98.7333 159.4443 0001231  88.1244 323.0845 14.19537112558737
FENGYUN 2F              
1 38049U 12002A   22221.01994068 -.00000366  00000+0  00000+0 0  9999
2 38049   3.9155  79.2976 0000532  51.2780 306.2032  1.00276492 38763
METEOSAT-10 (MSG-3)     
1 38552U 12035B   22220.81316647  .00000054  00000+0  00000+0 0  9995
2 38552   1.5982  44.0594 0001005  42.5632 172.6432  1.00267893 36734
METOP-B                 
1 38771U 12049A   22221.64680961  .00000048  00000+0  41677-4 0  9991
2 38771  98.6923 280.6033 0000484 116.1957  36.6659 14.21500162513289
FENGYUN 3C              
1 39260U 13052A   22221.48089602  .00000011  00000+0  26316-4 0  9990
2 39260  98.4520 246.9051 0012117 119.0643 241.1755 14.15935088459426
METEOR-M 2              
1 40069U 14037A   22221.35496084 -.00000003  00000+0  17798-4 0  9991
2 40069  98.4310 236.7441 0005892 157.5032 202.6409 14.20714946419375
HIMAWARI-8              
1 40267U 14060A   22220.91785727 -.00000281  00000+0  00000+0 0  9994
2 40267   0.0511 257.0876 0001123 224.4142 306.9706  1.00269725 28743
FENGYUN 2G              
1 40367U 14090A   22221.37131441 -.00000312  00000+0  00000+0 0  9992
2 40367   2.0640  88.9775 0000741 302.4990 159.8184  1.00269422 27929
METEOSAT-11 (MSG-4)     
1 40732U 15034A   22220.88452172 -.00000012  00000+0  00000+0 0  9996
2 40732   0.3942  67.1599 0001303  31.0780 177.4062  1.00266378 25905
ELEKTRO-L 2             
1 41105U 15074A   22220.80845766 -.00000123  00000+0  00000+0 0  9995
2 41105   3.1160  87.5607 0002194  75.1687  71.1457  1.00272950 24396
HIMAWARI-9              
1 41836U 16064A   22221.46091088 -.00000283  00000+0  00000+0 0  9996
2 41836   0.0154  46.6071 0000889  74.4165 143.5944  1.00272167 21188
GOES 16                 
1 41866U 16071A   22220.79633681 -.00000253  00000+0  00000+0 0  9990
2 41866   0.0578 261.4860 0000620 250.4730  16.7926  1.00271182 20985
FENGYUN 4A              
1 41882U 16077A   22221.57271725 -.00000339  00000+0  00000+0 0  9993
2 41882   0.1033  79.7864 0002835  40.5553 148.5345  1.00271333 20869
CYGFM05                 
1 41884U 16078A   22220.38617813  .00001923  00000+0  97688-4 0  9998
2 41884  34.9548 238.3389 0015275 198.3485 161.6677 15.16548575312674
CYGFM04                 
1 41885U 16078B   22221.34122624  .00002066  00000+0  10330-3 0  9994
2 41885  34.9479 221.3239 0014020 223.7712 136.1889 15.17087670313024
CYGFM02                 
1 41886U 16078C   22220.40938306  .00002055  00000+0  10263-3 0  9996
2 41886  34.9571 229.3596 0014560 209.7444 150.2441 15.17122260312808
CYGFM01                 
1 41887U 16078D   22220.39473996  .00001889  00000+0  96534-4 0  9994
2 41887  34.9516 240.7608 0015697 197.6772 162.3395 15.16354989312626
CYGFM08                 
1 41888U 16078E   22221.35055543  .00002066  00000+0  10398-3 0  9997
2 41888  34.9485 227.2097 0015134 217.9820 141.9825 15.16830603312937
CYGFM06                 
1 41889U 16078F   22220.71821338  .00002042  00000+0  10200-3 0  9996
2 41889  34.9567 226.1051 0013546 212.7495 147.2378 15.17138680312796
CYGFM07                 
1 41890U 16078G   22220.37584742  .00001969  00000+0  98574-4 0  9993
2 41890  34.9504 227.0860 0013371 214.0831 145.9023 15.17069618312721
CYGFM03                 
1 41891U 16078H   22220.70376115  .00005049  00000+0  25013-3 0  9994
2 41891  34.9534 225.5300 0013030 215.4437 144.5410 15.17076658312767
FENGYUN 3D              
1 43010U 17072A   22221.36915123  .00000030  00000+0  35420-4 0  9994
2 43010  98.8179 165.7134 0002846  98.2037 261.9463 14.19216689245276
NOAA 20                 
1 43013U 17073A   22221.57988859  .00000023  00000+0  31411-4 0  9995
2 43013  98.7172 159.3078 0000737  78.3032 281.8227 14.19564759244764
GOES 17                 
1 43226U 18022A   22221.07102098  .00000092  00000+0  00000+0 0  9995
2 43226   0.0906 266.0238 0000541 219.0313  80.7302  1.00271425 16313
FENGYUN 2H              
1 43491U 18050A   22221.47757812 -.00000137  00000+0  00000+0 0  9995
2 43491   1.2781  96.1650 0004552  41.6846  71.2738  1.00268432 15396
METOP-C                 
1 43689U 18087A   22221.58352144  .00000043  00000+0  39666-4 0  9995
2 43689  98.6805 280.6953 0001767 227.6853 132.4175 14.21500196194854
GEO-KOMPSAT-2A          
1 43823U 18100A   22221.42827257 -.00000352  00000+0  00000+0 0  9995
2 43823   0.0148  82.8903 0002431  26.9568 130.4796  1.00270972 13542
METEOR-M2 2             
1 44387U 19038A   22221.42304109 -.00000013  00000+0  13673-4 0  9997
2 44387  98.7262 181.7871 0002289 105.4843 254.6590 14.23716278160943
FENGYUN 3E              
1 49008U 21062A   22221.43979478 -.00000025  00000+0  88455-5 0  9994
2 49008  98.7124 222.5643 0001771 159.2797 200.8452 14.19735595 56836
GOES 18                 
1 51850U 22021A   22221.51790347  .00000088  00000+0  00000+0 0  9995
2 51850   0.0367  90.9887 0002562 111.8163 164.6350  1.00270302  1690
